{
  "type": "FeatureCollection",
  "features": [
    {
      "type": "Feature",
      "properties": {
        "norad_id": 31955,
        "name": "FENGYUN 1C DEB",
        "group": "fengyun-1c-debris",
        "lat": 42.12559559701106,
        "lon": 47.227207197241945,
        "alt_km": 661.0325986760454,
        "timestamp": "2025-12-08T10:52:03.232764+00:00",
        "meta_object_name": "FENGYUN 1C DEB",
        "meta_object_id": "1999-025CNG",
        "meta_epoch": "2025-12-07T10:26:37.869792",
        "meta_mean_motion": 14.63748499,
        "meta_eccentricity": 0.00431412,
        "meta_inclination": 99.2801,
        "meta_ra_of_asc_node": 217.5788,
        "meta_arg_of_pericenter": 197.574,
        "meta_mean_anomaly": 340.4555,
        "meta_ephemeris_type": 0,
        "meta_classification_type": "U",
        "meta_norad_cat_id": 31955,
        "meta_element_set_no": 999,
        "meta_rev_at_epoch": 96479,
        "meta_bstar": 0.0026904937,
        "meta_mean_motion_dot": 0.00014178,
        "meta_mean_motion_ddot": 0,
        "tle_line1": "1 31955U 99025CNG 25341.43516053  .00014178  00000+0  26905-2 0  9994",
        "tle_line2": "2 31955  99.2801 217.5788 0043141 197.5740 340.4555 14.63748499964794"
      },
      "geometry": {
        "type": "Point",
        "coordinates": [
          47.227207197241945,
          42.12559559701106
        ]
      }
    },
    {
      "type": "Feature",
      "properties": {
        "norad_id": 31959,
        "name": "FENGYUN 1C DEB",
        "group": "fengyun-1c-debris",
        "lat": 81.48327581206823,
        "lon": 122.7846902230203,
        "alt_km": 725.8151786159879,
        "timestamp": "2025-12-08T10:52:03.232774+00:00",
        "meta_object_name": "FENGYUN 1C DEB",
        "meta_object_id": "1999-025CNL",
        "meta_epoch": "2025-12-07T09:33:05.501376",
        "meta_mean_motion": 14.46612171,
        "meta_eccentricity": 0.00265605,
        "meta_inclination": 98.5107,
        "meta_ra_of_asc_node": 212.3798,
        "meta_arg_of_pericenter": 173.2033,
        "meta_mean_anomaly": 186.9524,
        "meta_ephemeris_type": 0,
        "meta_classification_type": "U",
        "meta_norad_cat_id": 31959,
        "meta_element_set_no": 999,
        "meta_rev_at_epoch": 64276,
        "meta_bstar": 0.0040582486,
        "meta_mean_motion_dot": 0.0001469,
        "meta_mean_motion_ddot": 0,
        "tle_line1": "1 31959U 99025CNL 25341.39798034  .00014690  00000+0  40582-2 0  9990",
        "tle_line2": "2 31959  98.5107 212.3798 0026560 173.2033 186.9524 14.46612171642762"
      },
      "geometry": {
        "type": "Point",
        "coordinates": [
          122.7846902230203,
          81.48327581206823
        ]
      }
    },
    {
      "type": "Feature",
      "properties": {
        "norad_id": 31964,
        "name": "FENGYUN 1C DEB",
        "group": "fengyun-1c-debris",
        "lat": 49.52676660881969,
        "lon": 95.54782902602196,
        "alt_km": 673.6381467946703,
        "timestamp": "2025-12-08T10:52:03.232784+00:00",
        "meta_object_name": "FENGYUN 1C DEB",
        "meta_object_id": "1999-025CNR",
        "meta_epoch": "2025-12-06T14:10:40.867392",
        "meta_mean_motion": 14.58272447,
        "meta_eccentricity": 0.00288541,
        "meta_inclination": 98.7002,
        "meta_ra_of_asc_node": 103.9384,
        "meta_arg_of_pericenter": 51.5034,
        "meta_mean_anomaly": 308.8744,
        "meta_ephemeris_type": 0,
        "meta_classification_type": "U",
        "meta_norad_cat_id": 31964,
        "meta_element_set_no": 999,
        "meta_rev_at_epoch": 67420,
        "meta_bstar": 0.0044938575,
        "meta_mean_motion_dot": 0.00020897,
        "meta_mean_motion_ddot": 0,
        "tle_line1": "1 31964U 99025CNR 25340.59075078  .00020897  00000+0  44939-2 0  9999",
        "tle_line2": "2 31964  98.7002 103.9384 0028854  51.5034 308.8744 14.58272447674201"
      },
      "geometry": {
        "type": "Point",
        "coordinates": [
          95.54782902602196,
          49.52676660881969
        ]
      }
    },
    {
      "type": "Feature",
      "properties": {
        "norad_id": 31966,
        "name": "FENGYUN 1C DEB",
        "group": "fengyun-1c-debris",
        "lat": -66.37510018080437,
        "lon": -66.67037019860017,
        "alt_km": 629.70732847197,
        "timestamp": "2025-12-08T10:52:03.232794+00:00",
        "meta_object_name": "FENGYUN 1C DEB",
        "meta_object_id": "1999-025CNT",
        "meta_epoch": "2025-12-06T16:49:19.238304",
        "meta_mean_motion": 14.67408953,
        "meta_eccentricity": 0.00862146,
        "meta_inclination": 99.0171,
        "meta_ra_of_asc_node": 132.69,
        "meta_arg_of_pericenter": 293.4744,
        "meta_mean_anomaly": 65.7413,
        "meta_ephemeris_type": 0,
        "meta_classification_type": "U",
        "meta_norad_cat_id": 31966,
        "meta_element_set_no": 999,
        "meta_rev_at_epoch": 65654,
        "meta_bstar": 0.0020726138,
        "meta_mean_motion_dot": 0.00012351,
        "meta_mean_motion_ddot": 0,
        "tle_line1": "1 31966U 99025CNT 25340.70091711  .00012351  00000+0  20726-2 0  9990",
        "tle_line2": "2 31966  99.0171 132.6900 0086214 293.4744  65.7413 14.67408953656548"
      },
      "geometry": {
        "type": "Point",
        "coordinates": [
          -66.67037019860017,
          -66.37510018080437
        ]
      }
    },
    {
      "type": "Feature",
      "properties": {
        "norad_id": 31972,
        "name": "FENGYUN 1C DEB",
        "group": "fengyun-1c-debris",
        "lat": 44.517926947947466,
        "lon": -146.7987997850198,
        "alt_km": 864.6285083271841,
        "timestamp": "2025-12-08T10:52:03.232804+00:00",
        "meta_object_name": "FENGYUN 1C DEB",
        "meta_object_id": "1999-025CNZ",
        "meta_epoch": "2025-12-07T01:57:33.205248",
        "meta_mean_motion": 14.07506683,
        "meta_eccentricity": 0.00771223,
        "meta_inclination": 99.2126,
        "meta_ra_of_asc_node": 22.6208,
        "meta_arg_of_pericenter": 47.4444,
        "meta_mean_anomaly": 342.3369,
        "meta_ephemeris_type": 0,
        "meta_classification_type": "U",
        "meta_norad_cat_id": 31972,
        "meta_element_set_no": 999,
        "meta_rev_at_epoch": 94881,
        "meta_bstar": 0.00026468372,
        "meta_mean_motion_dot": 4.12e-06,
        "meta_mean_motion_ddot": 0,
        "tle_line1": "1 31972U 99025CNZ 25341.08163432  .00000412  00000+0  26468-3 0  9994",
        "tle_line2": "2 31972  99.2126  22.6208 0077122  47.4444 342.3369 14.07506683948819"
      },
      "geometry": {
        "type": "Point",
        "coordinates": [
          -146.7987997850198,
          44.517926947947466
        ]
      }
    },
    {
      "type": "Feature",
      "properties": {
        "norad_id": 31974,
        "name": "FENGYUN 1C DEB",
        "group": "fengyun-1c-debris",
        "lat": -80.16061956265398,
        "lon": 115.55722201839788,
        "alt_km": 768.2556016180333,
        "timestamp": "2025-12-08T10:52:03.232814+00:00",
        "meta_object_name": "FENGYUN 1C DEB",
        "meta_object_id": "1999-025CPB",
        "meta_epoch": "2025-12-07T11:47:14.693856",
        "meta_mean_motion": 14.29419906,
        "meta_eccentricity": 0.00716481,
        "meta_inclination": 98.3786,
        "meta_ra_of_asc_node": 352.8177,
        "meta_arg_of_pericenter": 318.4803,
        "meta_mean_anomaly": 41.095,
        "meta_ephemeris_type": 0,
        "meta_classification_type": "U",
        "meta_norad_cat_id": 31974,
        "meta_element_set_no": 999,
        "meta_rev_at_epoch": 69347,
        "meta_bstar": 0.0040154627,
        "meta_mean_motion_dot": 0.00010502,
        "meta_mean_motion_ddot": 0,
        "tle_line1": "1 31974U 99025CPB 25341.49114229  .00010502  00000+0  40155-2 0  9990",
        "tle_line2": "2 31974  98.3786 352.8177 0071648 318.4803  41.0950 14.29419906693476"
      },
      "geometry": {
        "type": "Point",
        "coordinates": [
          115.55722201839788,
          -80.16061956265398
        ]
      }
    },
    {
      "type": "Feature",
      "properties": {
        "norad_id": 31978,
        "name": "FENGYUN 1C DEB",
        "group": "fengyun-1c-debris",
        "lat": -65.14438070871485,
        "lon": -60.47585215785145,
        "alt_km": 1225.6223994636266,
        "timestamp": "2025-12-08T10:52:03.232824+00:00",
        "meta_object_name": "FENGYUN 1C DEB",
        "meta_object_id": "1999-025CPF",
        "meta_epoch": "2025-12-05T09:26:48.442272",
        "meta_mean_motion": 13.63089053,
        "meta_eccentricity": 0.02631323,
        "meta_inclination": 98.3803,
        "meta_ra_of_asc_node": 135.4409,
        "meta_arg_of_pericenter": 69.4232,
        "meta_mean_anomaly": 293.4931,
        "meta_ephemeris_type": 0,
        "meta_classification_type": "U",
        "meta_norad_cat_id": 31978,
        "meta_element_set_no": 999,
        "meta_rev_at_epoch": 91490,
        "meta_bstar": 0.0019607422,
        "meta_mean_motion_dot": 1.908e-05,
        "meta_mean_motion_ddot": 0,
        "tle_line1": "1 31978U 99025CPF 25339.39361623  .00001908  00000+0  19607-2 0  9990",
        "tle_line2": "2 31978  98.3803 135.4409 0263132  69.4232 293.4931 13.63089053914902"
      },
      "geometry": {
        "type": "Point",
        "coordinates": [
          -60.47585215785145,
          -65.14438070871485
        ]
      }
    }
  ]
}